STARLINK-31379          
1 58984U 24031V   26068.84947809  .00000298  00000+0  22182-4 0  9992
2 58984  53.1597 296.2331 0001122  89.7443 270.3686 15.30194472116537
EXO-0                   
1 59175U 23174DK  26068.71046781  .00011582  00000+0  36716-3 0  9992
2 59175  97.3864 148.9039 0009878 157.1125 203.0559 15.32821991129797
